start=new Date('2022-11-09T00:00:00.000Z').valueOf();
sats=[{"SEMIMAJOR_AXIS":"6731.460","TIME_SYSTEM":"UTC","MEAN_MOTION_DDOT":"0.0000000000000","PERIOD":"91.606","BSTAR":"-0.00968270000000","EPHEMERIS_TYPE":"0","MEAN_ELEMENT_THEORY":"SGP4","LAUNCH_DATE":"2022-10-05","RA_OF_ASC_NODE":"283.5605","NORAD_CAT_ID":"53988","PERIAPSIS":"348.991","MEAN_MOTION_DOT":"-0.01150661","MEAN_MOTION":"15.71950391","REF_FRAME":"TEME","CENTER_NAME":"EARTH","MEAN_ANOMALY":"317.9994","DECAY_DATE":null,"COUNTRY_CODE":"US","ECCENTRICITY":"0.00064390","OBJECT_TYPE":"PAYLOAD","ELEMENT_SET_NO":"999","ARG_OF_PERICENTER":"273.1070","APOAPSIS":"357.660","OBJECT_ID":"2022-125AA","SITE":"AFWTR","OBJECT_NAME":"STARLINK-5113","EPOCH":"2022-11-08T22:00:00.999936","CLASSIFICATION_TYPE":"U","RCS_SIZE":"LARGE","TLE_LINE1":"1 53988U 22125AA  22312.91667824 -.01150661  00000-0 -96827-2 0  9994","INCLINATION":"53.2170","REV_AT_EPOCH":"573","FILE":"3648865","GP_ID":"217175037","TLE_LINE2":"2 53988  53.2170 283.5605 0006439 273.1070 317.9994 15.71950391  5732"},{"RCS_SIZE":"LARGE","SITE":"AFWTR","EPOCH":"2022-11-08T22:00:00.999936","OBJECT_NAME":"STARLINK-5115","CLASSIFICATION_TYPE":"U","ARG_OF_PERICENTER":"274.2077","APOAPSIS":"357.897","OBJECT_ID":"2022-125AB","ELEMENT_SET_NO":"999","OBJECT_TYPE":"PAYLOAD","TLE_LINE2":"2 53989  53.2169 283.5625 0005970 274.2077 315.7961 15.71756701  5730","TLE_LINE1":"1 53989U 22125AB  22312.91667824 -.00882364  00000-0 -74018-2 0  9994","REV_AT_EPOCH":"573","INCLINATION":"53.2169","FILE":"3648865","GP_ID":"217174866","MEAN_MOTION_DOT":"-0.00882364","MEAN_MOTION":"15.71756701","LAUNCH_DATE":"2022-10-05","RA_OF_ASC_NODE":"283.5625","NORAD_CAT_ID":"53989","PERIAPSIS":"349.859","PERIOD":"91.617","BSTAR":"-0.00740180000000","EPHEMERIS_TYPE":"0","MEAN_ELEMENT_THEORY":"SGP4","SEMIMAJOR_AXIS":"6732.013","TIME_SYSTEM":"UTC","MEAN_MOTION_DDOT":"0.0000000000000","MEAN_ANOMALY":"315.7961","COUNTRY_CODE":"US","DECAY_DATE":null,"ECCENTRICITY":"0.00059700","REF_FRAME":"TEME","CENTER_NAME":"EARTH"},{"BSTAR":"-0.00794700000000","EPHEMERIS_TYPE":"0","PERIOD":"91.615","MEAN_ELEMENT_THEORY":"SGP4","TIME_SYSTEM":"UTC","SEMIMAJOR_AXIS":"6731.917","MEAN_MOTION_DDOT":"0.0000000000000","MEAN_MOTION":"15.71790340","MEAN_MOTION_DOT":"-0.00956823","RA_OF_ASC_NODE":"283.5569","LAUNCH_DATE":"2022-10-05","PERIAPSIS":"349.606","NORAD_CAT_ID":"53990","REF_FRAME":"TEME","CENTER_NAME":"EARTH","COUNTRY_CODE":"US","DECAY_DATE":null,"ECCENTRICITY":"0.00062040","MEAN_ANOMALY":"321.9013","ARG_OF_PERICENTER":"271.0360","OBJECT_ID":"2022-125AC","APOAPSIS":"357.959","ELEMENT_SET_NO":"999","OBJECT_TYPE":"PAYLOAD","RCS_SIZE":"LARGE","OBJECT_NAME":"STARLINK-5075","EPOCH":"2022-11-08T22:00:00.999936","CLASSIFICATION_TYPE":"U","SITE":"AFWTR","FILE":"3648866","TLE_LINE1":"1 53990U 22125AC  22312.91667824 -.00956823  00000-0 -79470-2 0  9995","INCLINATION":"53.2171","REV_AT_EPOCH":"573","GP_ID":"217174872","TLE_LINE2":"2 53990  53.2171 283.5569 0006204 271.0360 321.9013 15.71790340  5737"},{"SITE":"AFWTR","EPOCH":"2022-11-08T22:00:00.999936","OBJECT_NAME":"STARLINK-5118","CLASSIFICATION_TYPE":"U","RCS_SIZE":"LARGE","ELEMENT_SET_NO":"999","OBJECT_TYPE":"PAYLOAD","APOAPSIS":"351.161","OBJECT_ID":"2022-125AD","ARG_OF_PERICENTER":"31.5383","TLE_LINE2":"2 53991  53.2175 282.8718 0002001  31.5383 187.8332 15.73180847  1304","GP_ID":"217204179","REV_AT_EPOCH":"130","TLE_LINE1":"1 53991U 22125AD  22312.91667824 -.00061348  00000-0 -43619-3 0  9992","INCLINATION":"53.2175","FILE":"3649076","NORAD_CAT_ID":"53991","PERIAPSIS":"348.469","LAUNCH_DATE":"2022-10-05","RA_OF_ASC_NODE":"282.8718","MEAN_MOTION_DOT":"-0.00061348","MEAN_MOTION":"15.73180847","MEAN_MOTION_DDOT":"0.0000000000000","SEMIMAJOR_AXIS":"6727.950","TIME_SYSTEM":"UTC","MEAN_ELEMENT_THEORY":"SGP4","PERIOD":"91.534","EPHEMERIS_TYPE":"0","BSTAR":"-0.00043619000000","MEAN_ANOMALY":"187.8332","ECCENTRICITY":"0.00020010","DECAY_DATE":null,"COUNTRY_CODE":"US","CENTER_NAME":"EARTH","REF_FRAME":"TEME"},{"MEAN_MOTION_DDOT":"0.0000000000000","SEMIMAJOR_AXIS":"6731.424","TIME_SYSTEM":"UTC","MEAN_ELEMENT_THEORY":"SGP4","EPHEMERIS_TYPE":"0","BSTAR":"-0.00955780000000","PERIOD":"91.605","PERIAPSIS":"349.274","NORAD_CAT_ID":"53992","RA_OF_ASC_NODE":"283.5513","LAUNCH_DATE":"2022-10-05","MEAN_MOTION":"15.71962988","MEAN_MOTION_DOT":"-0.01137599","CENTER_NAME":"EARTH","REF_FRAME":"TEME","DECAY_DATE":null,"COUNTRY_CODE":"US","ECCENTRICITY":"0.00059650","MEAN_ANOMALY":"319.7293","ELEMENT_SET_NO":"999","OBJECT_TYPE":"PAYLOAD","OBJECT_ID":"2022-125AE","APOAPSIS":"357.305","ARG_OF_PERICENTER":"274.4136","EPOCH":"2022-11-08T22:00:00.999936","OBJECT_NAME":"STARLINK-5108","CLASSIFICATION_TYPE":"U","SITE":"AFWTR","RCS_SIZE":"LARGE","GP_ID":"217204924","FILE":"3649076","REV_AT_EPOCH":"130","TLE_LINE1":"1 53992U 22125AE  22312.91667824 -.01137599  00000-0 -95578-2 0  9996","INCLINATION":"53.2174","TLE_LINE2":"2 53992  53.2174 283.5513 0005965 274.4136 319.7293 15.71962988  1305"},{"MEAN_ANOMALY":"219.2316","COUNTRY_CODE":"US","DECAY_DATE":null,"ECCENTRICITY":"0.00024800","CENTER_NAME":"EARTH","REF_FRAME":"TEME","MEAN_MOTION_DOT":"-0.00084594","MEAN_MOTION":"15.73316871","NORAD_CAT_ID":"53993","PERIAPSIS":"347.759","LAUNCH_DATE":"2022-10-05","RA_OF_ASC_NODE":"283.5710","MEAN_ELEMENT_THEORY":"SGP4","PERIOD":"91.526","EPHEMERIS_TYPE":"0","BSTAR":"-0.00060124000000","MEAN_MOTION_DDOT":"0.0000000000000","SEMIMAJOR_AXIS":"6727.562","TIME_SYSTEM":"UTC","TLE_LINE2":"2 53993  53.2178 283.5710 0002480  14.6230 219.2316 15.73316871  1303","GP_ID":"217204419","REV_AT_EPOCH":"130","TLE_LINE1":"1 53993U 22125AF  22312.91667824 -.00084594  00000-0 -60124-3 0  9992","INCLINATION":"53.2178","FILE":"3649076","RCS_SIZE":"LARGE","SITE":"AFWTR","OBJECT_NAME":"STARLINK-5121","CLASSIFICATION_TYPE":"U","EPOCH":"2022-11-08T22:00:00.999936","APOAPSIS":"351.095","OBJECT_ID":"2022-125AF","ARG_OF_PERICENTER":"14.6230","OBJECT_TYPE":"PAYLOAD","ELEMENT_SET_NO":"999"},{"TLE_LINE2":"2 53994  53.2174 283.5463 0006011 274.2511 322.3531 15.72005081  1307","FILE":"3649076","REV_AT_EPOCH":"130","TLE_LINE1":"1 53994U 22125AG  22312.91667824 -.01137783  00000-0 -95420-2 0  9999","INCLINATION":"53.2174","GP_ID":"217204770","CLASSIFICATION_TYPE":"U","OBJECT_NAME":"STARLINK-5125","EPOCH":"2022-11-08T22:00:00.999936","SITE":"AFWTR","RCS_SIZE":"LARGE","ELEMENT_SET_NO":"999","OBJECT_TYPE":"PAYLOAD","ARG_OF_PERICENTER":"274.2511","OBJECT_ID":"2022-125AG","APOAPSIS":"357.215","DECAY_DATE":null,"ECCENTRICITY":"0.00060110","COUNTRY_CODE":"US","MEAN_ANOMALY":"322.3531","REF_FRAME":"TEME","CENTER_NAME":"EARTH","RA_OF_ASC_NODE":"283.5463","LAUNCH_DATE":"2022-10-05","PERIAPSIS":"349.123","NORAD_CAT_ID":"53994","MEAN_MOTION":"15.72005081","MEAN_MOTION_DOT":"-0.01137783","SEMIMAJOR_AXIS":"6731.304","TIME_SYSTEM":"UTC","MEAN_MOTION_DDOT":"0.0000000000000","BSTAR":"-0.00954200000000","EPHEMERIS_TYPE":"0","PERIOD":"91.603","MEAN_ELEMENT_THEORY":"SGP4"},{"DECAY_DATE":null,"ECCENTRICITY":"0.00062390","COUNTRY_CODE":"US","MEAN_ANOMALY":"319.1639","CENTER_NAME":"EARTH","REF_FRAME":"TEME","MEAN_MOTION":"15.71989790","MEAN_MOTION_DOT":"-0.01147208","PERIAPSIS":"349.013","NORAD_CAT_ID":"53995","RA_OF_ASC_NODE":"283.5513","LAUNCH_DATE":"2022-10-05","MEAN_ELEMENT_THEORY":"SGP4","EPHEMERIS_TYPE":"0","BSTAR":"-0.00963530000000","PERIOD":"91.604","MEAN_MOTION_DDOT":"0.0000000000000","TIME_SYSTEM":"UTC","SEMIMAJOR_AXIS":"6731.348","TLE_LINE2":"2 53995  53.2173 283.5513 0006239 275.6076 319.1639 15.71989790  1306","GP_ID":"217204591","FILE":"3649076","REV_AT_EPOCH":"130","TLE_LINE1":"1 53995U 22125AH  22312.91667824 -.01147208  00000-0 -96353-2 0  9999","INCLINATION":"53.2173","RCS_SIZE":"LARGE","EPOCH":"2022-11-08T22:00:00.999936","OBJECT_NAME":"STARLINK-5097","CLASSIFICATION_TYPE":"U","SITE":"AFWTR","OBJECT_ID":"2022-125AH","APOAPSIS":"357.412","ARG_OF_PERICENTER":"275.6076","OBJECT_TYPE":"PAYLOAD","ELEMENT_SET_NO":"999"},{"OBJECT_NAME":"STARLINK-5131","EPOCH":"2022-11-08T22:00:00.999936","CLASSIFICATION_TYPE":"U","SITE":"AFWTR","RCS_SIZE":"LARGE","ELEMENT_SET_NO":"999","OBJECT_TYPE":"PAYLOAD","OBJECT_ID":"2022-125AJ","APOAPSIS":"357.184","ARG_OF_PERICENTER":"273.7083","TLE_LINE2":"2 53996  53.2173 283.5467 0006046 273.7083 323.5260 15.72024457  1308","GP_ID":"217205188","FILE":"3649076","TLE_LINE1":"1 53996U 22125AJ  22312.91667824 -.01136457  00000-0 -95214-2 0  9999","INCLINATION":"53.2173","REV_AT_EPOCH":"130","PERIAPSIS":"349.044","NORAD_CAT_ID":"53996","RA_OF_ASC_NODE":"283.5467","LAUNCH_DATE":"2022-10-05","MEAN_MOTION":"15.72024457","MEAN_MOTION_DOT":"-0.01136457","MEAN_MOTION_DDOT":"0.0000000000000","SEMIMAJOR_AXIS":"6731.249","TIME_SYSTEM":"UTC","MEAN_ELEMENT_THEORY":"SGP4","BSTAR":"-0.00952140000000","EPHEMERIS_TYPE":"0","PERIOD":"91.602","ECCENTRICITY":"0.00060460","DECAY_DATE":null,"COUNTRY_CODE":"US","MEAN_ANOMALY":"323.5260","CENTER_NAME":"EARTH","REF_FRAME":"TEME"},{"OBJECT_TYPE":"PAYLOAD","ELEMENT_SET_NO":"999","ARG_OF_PERICENTER":"12.6622","APOAPSIS":"351.710","OBJECT_ID":"2022-125AK","SITE":"AFWTR","OBJECT_NAME":"STARLINK-5130","CLASSIFICATION_TYPE":"U","EPOCH":"2022-11-08T22:00:00.999936","RCS_SIZE":"LARGE","INCLINATION":"53.2168","TLE_LINE1":"1 53997U 22125AK  22312.91667824  .00180055  00000-0  12588-2 0  9993","REV_AT_EPOCH":"130","FILE":"3649076","GP_ID":"217204009","TLE_LINE2":"2 53997  53.2168 283.5631 0002984  12.6622 224.1698 15.73220105  1302","SEMIMAJOR_AXIS":"6727.838","TIME_SYSTEM":"UTC","MEAN_MOTION_DDOT":"0.0000000000000","PERIOD":"91.532","BSTAR":"0.00125880000000","EPHEMERIS_TYPE":"0","MEAN_ELEMENT_THEORY":"SGP4","LAUNCH_DATE":"2022-10-05","RA_OF_ASC_NODE":"283.5631","NORAD_CAT_ID":"53997","PERIAPSIS":"347.695","MEAN_MOTION_DOT":"0.00180055","MEAN_MOTION":"15.73220105","REF_FRAME":"TEME","CENTER_NAME":"EARTH","MEAN_ANOMALY":"224.1698","ECCENTRICITY":"0.00029840","DECAY_DATE":null,"COUNTRY_CODE":"US"}];
